NORAD_CAT_ID,OBJECT_NAME,OBJECT_TYPE,EPOCH,MEAN_MOTION,ECCENTRICITY,INCLINATION,RA_OF_ASC_NODE,ARG_OF_PERICENTER,MEAN_ANOMALY,BSTAR,MEAN_MOTION_DOT,MEAN_MOTION_DDOT,TLE_LINE0,TLE_LINE1,TLE_LINE2,SEMIMAJOR_AXIS,PERIOD,APOGEE,PERIGEE,DECAYED
55785.0,STARLINK-5818,PAYLOAD,2024-05-09 03:54:07,14.98332281,0.0003116,69.999,92.7281,268.4868,91.5934,8.1e-05,8.74e-06,0.0,0 STARLINK-5818,1 55785U 23028AW  24130.16258463  .00000874  00000-0  81000-4 0  9992,2 55785  69.9990  92.7281 0003116 268.4868  91.5934 14.98332281 66729,6950.186,96.107,574.217,569.885,0.0
55785.0,STARLINK-5818,PAYLOAD,2024-05-09 07:06:23,14.98336191,0.0003088,69.9991,92.3916,268.5366,91.5439,0.00012059,1.346e-05,0.0,0 STARLINK-5818,1 55785U 23028AW  24130.29610052  .00001346  00000-0  12059-3 0  9994,2 55785  69.9991  92.3916 0003088 268.5366  91.5439 14.98336191 66750,6950.174,96.107,574.185,569.893,0.0
55785.0,STARLINK-5818,PAYLOAD,2024-05-09 21:31:35,14.98334304,0.0003074,69.9993,90.8761,268.4872,91.5935,-8.144e-06,-1.9e-06,0.0,0 STARLINK-5818,1 55785U 23028AW  24130.89694279 -.00000190  00000-0 -81440-5 0  9993,2 55785  69.9993  90.8761 0003074 268.4872  91.5935 14.98334304 66844,6950.18,96.107,574.181,569.908,0.0
55785.0,STARLINK-5818,PAYLOAD,2024-05-10 03:56:08,14.98335292,0.0002973,69.9994,90.2028,268.1595,91.9224,-2.9914e-05,-4.5e-06,0.0,0 STARLINK-5818,1 55785U 23028AW  24131.16398201 -.00000450  00000-0 -29914-4 0  9996,2 55785  69.9994  90.2028 0002973 268.1595  91.9224 14.98335292 66876,6950.177,96.107,574.108,569.975,0.0
55785.0,STARLINK-5818,PAYLOAD,2024-05-10 07:08:23,14.98336297,0.0003219,69.9994,89.8663,270.7746,89.3044,5.4855e-05,5.62e-06,0.0,0 STARLINK-5818,1 55785U 23028AW  24131.29749835  .00000562  00000-0  54855-4 0  9997,2 55785  69.9994  89.8663 0003219 270.7746  89.3044 14.98336297 66907,6950.173,96.107,574.276,569.801,0.0
55785.0,STARLINK-5818,PAYLOAD,2024-05-10 21:33:36,14.9833774,0.0002671,70.0003,88.3515,273.0733,87.0121,-0.00011366,-1.449e-05,0.0,0 STARLINK-5818,1 55785U 23028AW  24131.89834063 -.00001449  00000-0 -11366-3 0  9997,2 55785  70.0003  88.3515 0002671 273.0733  87.0121 14.98337740 66998,6950.169,96.107,573.89,570.178,0.0
55785.0,STARLINK-5818,PAYLOAD,2024-05-11 03:58:08,14.98334549,0.0002167,70.0015,87.6793,278.4272,81.6641,0.00012256,1.37e-05,0.0,0 STARLINK-5818,1 55785U 23028AW  24132.16537614  .00001370  00000-0  12256-3 0  9990,2 55785  70.0015  87.6793 0002167 278.4272  81.6641 14.98334549 67024,6950.179,96.107,573.55,570.538,0.0
55785.0,STARLINK-5818,PAYLOAD,2024-05-11 07:10:22,14.98365118,0.0002615,70.0,87.3416,279.0848,81.0015,0.00031723,3.698e-05,0.0,0 STARLINK-5818,1 55785U 23028AW  24132.29886977  .00003698  00000-0  31723-3 0  9998,2 55785  70.0000  87.3416 0002615 279.0848  81.0015 14.98365118 67048,6950.084,96.105,573.767,570.132,0.0
55785.0,STARLINK-5818,PAYLOAD,2024-05-11 21:35:35,14.98345444,0.0002055,70.0037,85.8304,265.8902,94.2022,0.00019222,2.202e-05,0.0,0 STARLINK-5818,1 55785U 23028AW  24132.89971786  .00002202  00000-0  19222-3 0  9997,2 55785  70.0037  85.8304 0002055 265.8902  94.2022 14.98345444 67144,6950.145,96.106,573.438,570.582,0.0
55785.0,STARLINK-5818,PAYLOAD,2024-05-12 04:00:14,14.98271442,0.0002372,70.0007,85.1537,273.8334,86.2553,-0.0006665,-8.024e-05,0.0,0 STARLINK-5818,1 55785U 23028AW  24133.16682897 -.00008024  00000-0 -66650-3 0  9997,2 55785  70.0007  85.1537 0002372 273.8334  86.2553 14.98271442 67171,6950.374,96.111,573.888,570.59,0.0
55785.0,STARLINK-5818,PAYLOAD,2024-05-12 13:37:03,14.98258689,0.0003067,69.9991,84.1458,279.5964,80.4848,-0.00025795,-3.164e-05,0.0,0 STARLINK-5818,1 55785U 23028AW  24133.56740025 -.00003164  00000-0 -25795-3 0  9994,2 55785  69.9991  84.1458 0003067 279.5964  80.4848 14.98258689 67244,6950.413,96.112,574.41,570.147,0.0
55785.0,STARLINK-5818,PAYLOAD,2024-05-12 21:37:41,14.98303881,0.0002872,70.0007,83.3023,280.1905,79.893,-0.000287,-3.513e-05,0.0,0 STARLINK-5818,1 55785U 23028AW  24133.90117959 -.00003513  00000-0 -28700-3 0  9993,2 55785  70.0007  83.3023 0002872 280.1905  79.8930 14.98303881 67294,6950.274,96.109,574.135,570.143,0.0
55785.0,STARLINK-5818,PAYLOAD,2024-05-13 02:26:04,14.9832461,0.0002369,70.0003,82.7968,268.2854,91.8033,-5.7857e-05,-7.83e-06,0.0,0 STARLINK-5818,1 55785U 23028AW  24134.10144229 -.00000783  00000-0 -57857-4 0  9998,2 55785  70.0003  82.7968 0002369 268.2854  91.8033 14.98324610 67316,6950.21,96.107,573.721,570.428,0.0
55785.0,STARLINK-5818,PAYLOAD,2024-05-13 13:39:00,14.9834351,0.0002934,69.9995,81.619,271.1244,88.9579,-0.00014003,-1.764e-05,0.0,0 STARLINK-5818,1 55785U 23028AW  24134.56875289 -.00001764  00000-0 -14003-3 0  9990,2 55785  69.9995  81.6190 0002934 271.1244  88.9579 14.98343510 67392,6950.151,96.106,574.055,569.977,0.0
55785.0,STARLINK-5818,PAYLOAD,2024-05-13 20:03:32,14.98296743,0.0003084,69.9992,80.9452,274.3521,85.7286,0.0006657,7.852e-05,0.0,0 STARLINK-5818,1 55785U 23028AW  24134.83579497  .00007852  00000-0  66570-3 0  9990,2 55785  69.9992  80.9452 0003084 274.3521  85.7286 14.98296743 67432,6950.296,96.109,574.304,570.017,0.0
55785.0,STARLINK-5818,PAYLOAD,2024-05-14 04:04:12,14.98306905,0.0003082,69.9993,80.1042,275.1084,84.9723,0.00069079,8.154e-05,0.0,0 STARLINK-5818,1 55785U 23028AW  24135.16959445  .00008154  00000-0  69079-3 0  9995,2 55785  69.9993  80.1042 0003082 275.1084  84.9723 14.98306905 67474,6950.264,96.108,574.271,569.987,0.0
55785.0,STARLINK-5818,PAYLOAD,2024-05-14 13:41:01,14.98316281,0.0002986,69.9997,79.0941,274.3929,85.6888,0.00063886,7.535e-05,0.0,0 STARLINK-5818,1 55785U 23028AW  24135.57015458  .00007535  00000-0  63886-3 0  9999,2 55785  69.9997  79.0941 0002986 274.3929  85.6888 14.98316281 67540,6950.235,96.108,574.176,570.025,0.0
55785.0,STARLINK-5818,PAYLOAD,2024-05-14 21:41:41,14.98293766,0.0002905,69.9996,78.2525,272.1141,87.9685,0.0011892,0.00014112,0.0,0 STARLINK-5818,1 55785U 23028AW  24135.90395628  .00014112  00000-0  11892-2 0  9994,2 55785  69.9996  78.2525 0002905 272.1141  87.9685 14.98293766 67598,6950.305,96.109,574.189,570.151,0.0
55785.0,STARLINK-5818,PAYLOAD,2024-05-15 04:06:12,14.98361334,0.0002986,69.9997,77.5792,270.4265,89.6552,0.00027843,3.233e-05,0.0,0 STARLINK-5818,1 55785U 23028AW  24136.17097252  .00003233  00000-0  27843-3 0  9992,2 55785  69.9997  77.5792 0002986 270.4265  89.6552 14.98361334 67627,6950.096,96.105,574.036,569.886,0.0
55785.0,STARLINK-5818,PAYLOAD,2024-05-15 05:42:19,14.98363465,0.0002966,69.9999,77.411,270.5712,89.5107,0.00029655,3.45e-05,0.0,0 STARLINK-5818,1 55785U 23028AW  24136.23772933  .00003450  00000-0  29655-3 0  9999,2 55785  69.9999  77.4110 0002966 270.5712  89.5107 14.98363465 67642,6950.089,96.105,574.016,569.893,0.0
55785.0,STARLINK-5818,PAYLOAD,2024-05-15 20:07:34,14.98338494,0.0002915,69.9999,75.8966,269.7877,90.2948,-0.00012855,-1.627e-05,0.0,0 STARLINK-5818,1 55785U 23028AW  24136.83859042 -.00001627  00000-0 -12855-3 0  9992,2 55785  69.9999  75.8966 0002915 269.7877  90.2948 14.98338494 67724,6950.167,96.106,574.058,570.006,0.0
55785.0,STARLINK-5818,PAYLOAD,2024-05-15 21:43:43,14.98320867,0.0003623,70.0001,75.7285,283.0716,77.0039,-0.00032182,-3.93e-05,0.0,0 STARLINK-5818,1 55785U 23028AW  24136.90536601 -.00003930  00000-0 -32182-3 0  9997,2 55785  70.0001  75.7285 0003623 283.0716  77.0039 14.98320867 67743,6950.221,96.108,574.604,569.568,0.0
55785.0,STARLINK-5818,PAYLOAD,2024-05-16 04:08:15,14.98323671,0.0003181,70.0001,75.0549,269.8098,90.2697,-0.00030447,-3.723e-05,0.0,0 STARLINK-5818,1 55785U 23028AW  24137.17240322 -.00003723  00000-0 -30447-3 0  9991,2 55785  70.0001  75.0549 0003181 269.8098  90.2697 14.98323671 67779,6950.212,96.107,574.288,569.867,0.0
55785.0,STARLINK-5818,PAYLOAD,2024-05-16 13:45:02,14.98339691,0.0003476,69.9997,74.0454,270.1022,89.9739,-0.00013338,-1.685e-05,0.0,0 STARLINK-5818,1 55785U 23028AW  24137.57294657 -.00001685  00000-0 -13338-3 0  9990,2 55785  69.9997  74.0454 0003476 270.1022  89.9739 14.98339691 67842,6950.163,96.106,574.444,569.612,0.0
55785.0,STARLINK-5818,PAYLOAD,2024-05-16 18:33:26,14.98344094,0.0003653,69.9983,73.5401,269.6841,90.39,-0.00015916,-1.992e-05,0.0,0 STARLINK-5818,1 55785U 23028AW  24137.77322215 -.00001992  00000-0 -15916-3 0  9999,2 55785  69.9983  73.5401 0003653 269.6841  90.3900 14.98344094 67863,6950.149,96.106,574.553,569.475,0.0
55785.0,STARLINK-5818,PAYLOAD,2024-05-17 04:10:12,14.98365623,0.0003023,70.0007,72.5294,273.0221,87.0592,-1.3253e-05,-2.51e-06,0.0,0 STARLINK-5818,1 55785U 23028AW  24138.17375894 -.00000251  00000-0 -13253-4 0  9995,2 55785  70.0007  72.5294 0003023 273.0221  87.0592 14.98365623 67922,6950.083,96.105,574.049,569.847,0.0
55785.0,STARLINK-5818,PAYLOAD,2024-05-17 05:46:20,14.98368922,0.000305,70.0008,72.3609,271.6795,88.4015,2.7586e-05,2.36e-06,0.0,0 STARLINK-5818,1 55785U 23028AW  24138.24051425  .00000236  00000-0  27586-4 0  9999,2 55785  70.0008  72.3609 0003050 271.6795  88.4015 14.98368922 67943,6950.073,96.105,574.057,569.818,0.0
55785.0,STARLINK-5818,PAYLOAD,2024-05-17 18:35:27,14.98314976,0.0003298,70.0006,71.0157,274.6298,85.4484,0.00011426,1.27e-05,0.0,0 STARLINK-5818,1 55785U 23028AW  24138.77462233  .00001270  00000-0  11426-3 0  9994,2 55785  70.0006  71.0157 0003298 274.6298  85.4484 14.98314976 68016,6950.239,96.108,574.397,569.812,0.0
55785.0,STARLINK-5818,PAYLOAD,2024-05-17 21:47:43,14.98313605,0.0003458,70.0005,70.6789,275.1093,84.9671,9.1768e-05,1.002e-05,0.0,0 STARLINK-5818,1 55785U 23028AW  24138.90814476  .00001002  00000-0  91768-4 0  9990,2 55785  70.0005  70.6789 0003458 275.1093  84.9671 14.98313605 68041,6950.244,96.108,574.512,569.705,0.0
55785.0,STARLINK-5818,PAYLOAD,2024-05-18 12:12:55,14.98332306,0.00033,70.0032,69.1636,268.2307,91.8474,-0.00012067,-1.533e-05,0.0,0 STARLINK-5818,1 55785U 23028AW  24139.50897911 -.00001533  00000-0 -12067-3 0  9997,2 55785  70.0032  69.1636 0003300 268.2307  91.8474 14.98332306 68128,6950.186,96.107,574.344,569.757,0.0
